NOAA 18                 
1 28654U 05018A   26074.91158155  .00000046  00000+0  47444-4 0  9999
2 28654  98.8147 155.9314 0015125  58.9177 301.3478 14.13712054 73131
NOAA 19                 
1 33591U 09005A   26074.89386986  .00000037  00000+0  43764-4 0  9998
2 33591  98.9595 145.6751 0012743 295.8533  64.1325 14.13457863881302
SUOMI NPP               
1 37849U 11061A   26074.94589320  .00000082  00000+0  59754-4 0  9992
2 37849  98.7877  16.4992 0000748 191.7925 168.3234 14.19545424745218
NOAA 20 (JPSS-1)        
1 43013U 17073A   26074.89011695  .00000067  00000+0  52653-4 0  9994
2 43013  98.7699  15.2158 0001465 129.5673 230.5633 14.19537797431230
