[{"OBJECT_NAME":"NOAA 18","OBJECT_ID":"2005-018A","EPOCH":"2026-03-15T21:52:40.645920","MEAN_MOTION":14.13712054,"ECCENTRICITY":0.00151257,"INCLINATION":98.8147,"RA_OF_ASC_NODE":155.9314,"ARG_OF_PERICENTER":58.9177,"MEAN_ANOMALY":301.3478,"EPHEMERIS_TYPE":0,"CLASSIFICATION_TYPE":"U","NORAD_CAT_ID":28654,"ELEMENT_SET_NO":999,"REV_AT_EPOCH":7313,"BSTAR":4.7444454e-5,"MEAN_MOTION_DOT":4.6e-7,"MEAN_MOTION_DDOT":0},{"OBJECT_NAME":"NOAA 19","OBJECT_ID":"2009-005A","EPOCH":"2026-03-15T21:27:10.355904","MEAN_MOTION":14.13457863,"ECCENTRICITY":0.00127434,"INCLINATION":98.9595,"RA_OF_ASC_NODE":145.6751,"ARG_OF_PERICENTER":295.8533,"MEAN_ANOMALY":64.1325,"EPHEMERIS_TYPE":0,"CLASSIFICATION_TYPE":"U","NORAD_CAT_ID":33591,"ELEMENT_SET_NO":999,"REV_AT_EPOCH":88130,"BSTAR":4.3764005e-5,"MEAN_MOTION_DOT":3.7e-7,"MEAN_MOTION_DDOT":0},{"OBJECT_NAME":"SUOMI NPP","OBJECT_ID":"2011-061A","EPOCH":"2026-03-15T22:42:05.172480","MEAN_MOTION":14.19545424,"ECCENTRICITY":7.48e-5,"INCLINATION":98.7877,"RA_OF_ASC_NODE":16.4992,"ARG_OF_PERICENTER":191.7925,"MEAN_ANOMALY":168.3234,"EPHEMERIS_TYPE":0,"CLASSIFICATION_TYPE":"U","NORAD_CAT_ID":37849,"ELEMENT_SET_NO":999,"REV_AT_EPOCH":74521,"BSTAR":5.9754461e-5,"MEAN_MOTION_DOT":8.2e-7,"MEAN_MOTION_DDOT":0},{"OBJECT_NAME":"NOAA 20 (JPSS-1)","OBJECT_ID":"2017-073A","EPOCH":"2026-03-15T21:21:46.104480","MEAN_MOTION":14.19537797,"ECCENTRICITY":0.00014657,"INCLINATION":98.7699,"RA_OF_ASC_NODE":15.2158,"ARG_OF_PERICENTER":129.5673,"MEAN_ANOMALY":230.5633,"EPHEMERIS_TYPE":0,"CLASSIFICATION_TYPE":"U","NORAD_CAT_ID":43013,"ELEMENT_SET_NO":999,"REV_AT_EPOCH":43123,"BSTAR":5.2653107e-5,"MEAN_MOTION_DOT":6.7e-7,"MEAN_MOTION_DDOT":0}]
